[{"OBJECT_NAME":"ONEWEB-0018","OBJECT_ID":"2020-020L","EPOCH":"2026-04-02T07:15:46.850976","MEAN_MOTION":13.11417677,"ECCENTRICITY":0.0002147,"INCLINATION":87.8907,"RA_OF_ASC_NODE":36.1504,"ARG_OF_PERICENTER":87.8046,"MEAN_ANOMALY":272.3328,"EPHEMERIS_TYPE":0,"CLASSIFICATION_TYPE":"U","NORAD_CAT_ID":45434,"ELEMENT_SET_NO":999,"REV_AT_EPOCH":29268,"BSTAR":0.0009048600000000001,"MEAN_MOTION_DOT":3.33e-06,"MEAN_MOTION_DDOT":0.0},{"OBJECT_NAME":"ONEWEB-0083","OBJECT_ID":"2020-020M","EPOCH":"2026-04-02T07:02:22.433280","MEAN_MOTION":13.11417274,"ECCENTRICITY":0.0001933,"INCLINATION":87.891,"RA_OF_ASC_NODE":36.141,"ARG_OF_PERICENTER":79.1422,"MEAN_ANOMALY":280.9923,"EPHEMERIS_TYPE":0,"CLASSIFICATION_TYPE":"U","NORAD_CAT_ID":45435,"ELEMENT_SET_NO":999,"REV_AT_EPOCH":29272,"BSTAR":0.0015622,"MEAN_MOTION_DOT":5.66e-06,"MEAN_MOTION_DDOT":0.0},{"OBJECT_NAME":"ONEWEB-0095","OBJECT_ID":"2020-020N","EPOCH":"2026-04-02T06:49:07.416768","MEAN_MOTION":13.11417285,"ECCENTRICITY":0.0001491,"INCLINATION":87.8912,"RA_OF_ASC_NODE":36.1507,"ARG_OF_PERICENTER":56.2158,"MEAN_ANOMALY":303.9112,"EPHEMERIS_TYPE":0,"CLASSIFICATION_TYPE":"U","NORAD_CAT_ID":45436,"ELEMENT_SET_NO":999,"REV_AT_EPOCH":29272,"BSTAR":0.0013467000000000002,"MEAN_MOTION_DOT":4.9e-06,"MEAN_MOTION_DDOT":0.0},{"OBJECT_NAME":"ONEWEB-0092","OBJECT_ID":"2020-020P","EPOCH":"2026-04-02T06:08:37.685472","MEAN_MOTION":13.11418035,"ECCENTRICITY":0.0001507,"INCLINATION":87.8914,"RA_OF_ASC_NODE":36.1563,"ARG_OF_PERICENTER":75.7136,"MEAN_ANOMALY":284.4159,"EPHEMERIS_TYPE":0,"CLASSIFICATION_TYPE":"U","NORAD_CAT_ID":45437,"ELEMENT_SET_NO":999,"REV_AT_EPOCH":29283,"BSTAR":-0.0014174,"MEAN_MOTION_DOT":-4.9e-06,"MEAN_MOTION_DDOT":0.0},{"OBJECT_NAME":"ONEWEB-0085","OBJECT_ID":"2020-020Q","EPOCH":"2026-04-02T07:01:08.140512","MEAN_MOTION":13.1141788,"ECCENTRICITY":0.000182,"INCLINATION":87.8908,"RA_OF_ASC_NODE":36.1528,"ARG_OF_PERICENTER":79.677,"MEAN_ANOMALY":280.4563,"EPHEMERIS_TYPE":0,"CLASSIFICATION_TYPE":"U","NORAD_CAT_ID":45438,"ELEMENT_SET_NO":999,"REV_AT_EPOCH":29272,"BSTAR":0.0016077,"MEAN_MOTION_DOT":5.83e-06,"MEAN_MOTION_DDOT":0.0},{"OBJECT_NAME":"ONEWEB-0096","OBJECT_ID":"2020-020R","EPOCH":"2026-04-02T07:03:35.335008","MEAN_MOTION":13.11417333,"ECCENTRICITY":0.0001815,"INCLINATION":87.8914,"RA_OF_ASC_NODE":36.1419,"ARG_OF_PERICENTER":81.6216,"MEAN_ANOMALY":278.5118,"EPHEMERIS_TYPE":0,"CLASSIFICATION_TYPE":"U","NORAD_CAT_ID":45439,"ELEMENT_SET_NO":999,"REV_AT_EPOCH":29271,"BSTAR":0.0014263000000000001,"MEAN_MOTION_DOT":5.18e-06,"MEAN_MOTION_DDOT":0.0},{"OBJECT_NAME":"ONEWEB-0037","OBJECT_ID":"2020-020S","EPOCH":"2026-04-02T06:35:29.285664","MEAN_MOTION":13.11420126,"ECCENTRICITY":0.0001792,"INCLINATION":87.8925,"RA_OF_ASC_NODE":36.1232,"ARG_OF_PERICENTER":78.1042,"MEAN_ANOMALY":282.0287,"EPHEMERIS_TYPE":0,"CLASSIFICATION_TYPE":"U","NORAD_CAT_ID":45440,"ELEMENT_SET_NO":999,"REV_AT_EPOCH":29274,"BSTAR":0.00038878000000000003,"MEAN_MOTION_DOT":1.5e-06,"MEAN_MOTION_DDOT":0.0},{"OBJECT_NAME":"ONEWEB-0042","OBJECT_ID":"2020-020T","EPOCH":"2026-04-02T06:48:43.473600","MEAN_MOTION":13.11419237,"ECCENTRICITY":0.0001789,"INCLINATION":87.8914,"RA_OF_ASC_NODE":36.1411,"ARG_OF_PERICENTER":82.0576,"MEAN_ANOMALY":278.0755,"EPHEMERIS_TYPE":0,"CLASSIFICATION_TYPE":"U","NORAD_CAT_ID":45441,"ELEMENT_SET_NO":999,"REV_AT_EPOCH":29271,"BSTAR":0.0014131,"MEAN_MOTION_DOT":5.14e-06,"MEAN_MOTION_DDOT":0.0},{"OBJECT_NAME":"ONEWEB-0098","OBJECT_ID":"2020-020U","EPOCH":"2026-04-02T06:42:49.798656","MEAN_MOTION":13.11419235,"ECCENTRICITY":0.0001942,"INCLINATION":87.8913,"RA_OF_ASC_NODE":36.1528,"ARG_OF_PERICENTER":79.1293,"MEAN_ANOMALY":281.0054,"EPHEMERIS_TYPE":0,"CLASSIFICATION_TYPE":"U","NORAD_CAT_ID":45442,"ELEMENT_SET_NO":999,"REV_AT_EPOCH":29269,"BSTAR":0.00096885,"MEAN_MOTION_DOT":3.56e-06,"MEAN_MOTION_DDOT":0.0},{"OBJECT_NAME":"ONEWEB-0055","OBJECT_ID":"2020-020V","EPOCH":"2026-04-02T06:18:23.046336","MEAN_MOTION":13.11419923,"ECCENTRICITY":0.0001919,"INCLINATION":87.8914,"RA_OF_ASC_NODE":36.1564,"ARG_OF_PERICENTER":79.127,"MEAN_ANOMALY":281.0073,"EPHEMERIS_TYPE":0,"CLASSIFICATION_TYPE":"U","NORAD_CAT_ID":45443,"ELEMENT_SET_NO":999,"REV_AT_EPOCH":29266,"BSTAR":-0.0009364,"MEAN_MOTION_DOT":-3.19e-06,"MEAN_MOTION_DDOT":0.0},{"OBJECT_NAME":"ONEWEB-0093","OBJECT_ID":"2020-020W","EPOCH":"2026-04-02T07:33:04.521024","MEAN_MOTION":13.11415679,"ECCENTRICITY":0.000166,"INCLINATION":87.8908,"RA_OF_ASC_NODE":36.1362,"ARG_OF_PERICENTER":91.8437,"MEAN_ANOMALY":268.2881,"EPHEMERIS_TYPE":0,"CLASSIFICATION_TYPE":"U","NORAD_CAT_ID":45444,"ELEMENT_SET_NO":999,"REV_AT_EPOCH":29273,"BSTAR":-0.00035743000000000005,"MEAN_MOTION_DOT":-1.14e-06,"MEAN_MOTION_DDOT":0.0},{"OBJECT_NAME":"ONEWEB-0029","OBJECT_ID":"2020-020X","EPOCH":"2026-04-02T07:56:02.404896","MEAN_MOTION":13.11416845,"ECCENTRICITY":0.0001876,"INCLINATION":87.8913,"RA_OF_ASC_NODE":36.144,"ARG_OF_PERICENTER":84.2516,"MEAN_ANOMALY":275.8826,"EPHEMERIS_TYPE":0,"CLASSIFICATION_TYPE":"U","NORAD_CAT_ID":45445,"ELEMENT_SET_NO":999,"REV_AT_EPOCH":29271,"BSTAR":-0.0020317,"MEAN_MOTION_DOT":-7.07e-06,"MEAN_MOTION_DDOT":0.0},{"OBJECT_NAME":"ONEWEB-0068","OBJECT_ID":"2020-020Y","EPOCH":"2026-04-02T07:32:40.388640","MEAN_MOTION":13.11415525,"ECCENTRICITY":0.0001847,"INCLINATION":87.8914,"RA_OF_ASC_NODE":36.1392,"ARG_OF_PERICENTER":85.6799,"MEAN_ANOMALY":274.454,"EPHEMERIS_TYPE":0,"CLASSIFICATION_TYPE":"U","NORAD_CAT_ID":45446,"ELEMENT_SET_NO":999,"REV_AT_EPOCH":29265,"BSTAR":-0.0003971,"MEAN_MOTION_DOT":-1.28e-06,"MEAN_MOTION_DDOT":0.0},{"OBJECT_NAME":"ONEWEB-0046","OBJECT_ID":"2020-020Z","EPOCH":"2026-04-02T05:30:47.236896","MEAN_MOTION":13.1141401,"ECCENTRICITY":0.0001644,"INCLINATION":87.8916,"RA_OF_ASC_NODE":36.163,"ARG_OF_PERICENTER":83.2946,"MEAN_ANOMALY":276.8369,"EPHEMERIS_TYPE":0,"CLASSIFICATION_TYPE":"U","NORAD_CAT_ID":45447,"ELEMENT_SET_NO":999,"REV_AT_EPOCH":29265,"BSTAR":0.00066945,"MEAN_MOTION_DOT":2.5e-06,"MEAN_MOTION_DDOT":0.0},{"OBJECT_NAME":"ONEWEB-0063","OBJECT_ID":"2020-020AA","EPOCH":"2026-04-02T06:12:16.938432","MEAN_MOTION":13.11418813,"ECCENTRICITY":0.0001599,"INCLINATION":87.8916,"RA_OF_ASC_NODE":36.1546,"ARG_OF_PERICENTER":76.7122,"MEAN_ANOMALY":283.4184,"EPHEMERIS_TYPE":0,"CLASSIFICATION_TYPE":"U","NORAD_CAT_ID":45448,"ELEMENT_SET_NO":999,"REV_AT_EPOCH":29274,"BSTAR":-0.0013383000000000002,"MEAN_MOTION_DOT":-4.62e-06,"MEAN_MOTION_DDOT":0.0},{"OBJECT_NAME":"ONEWEB-0019","OBJECT_ID":"2020-020AB","EPOCH":"2026-04-02T07:08:15.855072","MEAN_MOTION":13.11416677,"ECCENTRICITY":0.0002001,"INCLINATION":87.8903,"RA_OF_ASC_NODE":36.1386,"ARG_OF_PERICENTER":76.8464,"MEAN_ANOMALY":283.2887,"EPHEMERIS_TYPE":0,"CLASSIFICATION_TYPE":"U","NORAD_CAT_ID":45449,"ELEMENT_SET_NO":999,"REV_AT_EPOCH":29259,"BSTAR":0.0015331000000000001,"MEAN_MOTION_DOT":5.56e-06,"MEAN_MOTION_DDOT":0.0}]