ONEWEB-0018             
1 45434U 20020L   26092.30262559  .00000333  00000+0  90486-3 0  9993
2 45434  87.8907  36.1504 0002147  87.8046 272.3328 13.11417677292689
ONEWEB-0083             
1 45435U 20020M   26092.29331520  .00000566  00000+0  15622-2 0  9993
2 45435  87.8910  36.1410 0001933  79.1422 280.9923 13.11417274292728
ONEWEB-0095             
1 45436U 20020N   26092.28411362  .00000490  00000+0  13467-2 0  9997
2 45436  87.8912  36.1507 0001491  56.2158 303.9112 13.11417285292727
ONEWEB-0092             
1 45437U 20020P   26092.25599173 -.00000490  00000+0 -14174-2 0  9990
2 45437  87.8914  36.1563 0001507  75.7136 284.4159 13.11418035292832
ONEWEB-0085             
1 45438U 20020Q   26092.29245533  .00000583  00000+0  16077-2 0  9998
2 45438  87.8908  36.1528 0001820  79.6770 280.4563 13.11417880292722
ONEWEB-0096             
1 45439U 20020R   26092.29415897  .00000518  00000+0  14263-2 0  9994
2 45439  87.8914  36.1419 0001815  81.6216 278.5118 13.11417333292717
ONEWEB-0037             
1 45440U 20020S   26092.27464451  .00000150  00000+0  38878-3 0  9995
2 45440  87.8925  36.1232 0001792  78.1042 282.0287 13.11420126292740
ONEWEB-0042             
1 45441U 20020T   26092.28383650  .00000514  00000+0  14131-2 0  9997
2 45441  87.8914  36.1411 0001789  82.0576 278.0755 13.11419237292713
ONEWEB-0098             
1 45442U 20020U   26092.27974304  .00000356  00000+0  96885-3 0  9990
2 45442  87.8913  36.1528 0001942  79.1293 281.0054 13.11419235292697
ONEWEB-0055             
1 45443U 20020V   26092.26276674 -.00000319  00000+0 -93640-3 0  9992
2 45443  87.8914  36.1564 0001919  79.1270 281.0073 13.11419923292660
ONEWEB-0093             
1 45444U 20020W   26092.31463566 -.00000114  00000+0 -35743-3 0  9990
2 45444  87.8908  36.1362 0001660  91.8437 268.2881 13.11415679292735
ONEWEB-0029             
1 45445U 20020X   26092.33058339 -.00000707  00000+0 -20317-2 0  9999
2 45445  87.8913  36.1440 0001876  84.2516 275.8826 13.11416845292719
ONEWEB-0068             
1 45446U 20020Y   26092.31435635 -.00000128  00000+0 -39710-3 0  9991
2 45446  87.8914  36.1392 0001847  85.6799 274.4540 13.11415525292658
ONEWEB-0046             
1 45447U 20020Z   26092.22971339  .00000250  00000+0  66945-3 0  9992
2 45447  87.8916  36.1630 0001644  83.2946 276.8369 13.11414010292652
ONEWEB-0063             
1 45448U 20020AA  26092.25852938 -.00000462  00000+0 -13383-2 0  9993
2 45448  87.8916  36.1546 0001599  76.7122 283.4184 13.11418813292745
ONEWEB-0019             
1 45449U 20020AB  26092.29740573  .00000556  00000+0  15331-2 0  9996
2 45449  87.8903  36.1386 0002001  76.8464 283.2887 13.11416677292590
